{
  "type": "FeatureCollection",
  "features": [
    {
      "type": "Feature",
      "properties": {
        "norad_id": 28054,
        "name": "DMSP 5D-3 F16 (USA 172)",
        "group": "weather",
        "lat": -8.416125315712105,
        "lon": -168.9633220871215,
        "alt_km": 849.4948686900334,
        "timestamp": "2025-12-20T20:38:44.088070+00:00",
        "meta_object_name": "DMSP 5D-3 F16 (USA 172)",
        "meta_object_id": "2003-048A",
        "meta_epoch": "2025-12-20T13:30:12.716352",
        "meta_mean_motion": 14.14426798,
        "meta_eccentricity": 0.00062912,
        "meta_inclination": 99.0038,
        "meta_ra_of_asc_node": 12.081,
        "meta_arg_of_pericenter": 295.9709,
        "meta_mean_anomaly": 178.0588,
        "meta_ephemeris_type": 0,
        "meta_classification_type": "U",
        "meta_norad_cat_id": 28054,
        "meta_element_set_no": 999,
        "meta_rev_at_epoch": 14423,
        "meta_bstar": 6.3744893e-05,
        "meta_mean_motion_dot": 7.7e-07,
        "meta_mean_motion_ddot": 0,
        "tle_line1": "1 28054U 03048A   25354.56264718  .00000077  00000+0  63745-4 0  9994",
        "tle_line2": "2 28054  99.0038  12.0810 0006291 295.9709 178.0588 14.14426798144238"
      },
      "geometry": {
        "type": "Point",
        "coordinates": [
          -168.9633220871215,
          -8.416125315712105
        ]
      }
    },
    {
      "type": "Feature",
      "properties": {
        "norad_id": 28912,
        "name": "METEOSAT-9 (MSG-2)",
        "group": "weather",
        "lat": 4.362622148939341,
        "lon": 84.71580399855826,
        "alt_km": 35885.30103734058,
        "timestamp": "2025-12-20T20:38:44.088115+00:00",
        "meta_object_name": "METEOSAT-9 (MSG-2)",
        "meta_object_id": "2005-049B",
        "meta_epoch": "2025-12-18T20:21:29.033280",
        "meta_mean_motion": 1.00264866,
        "meta_eccentricity": 0.0082047,
        "meta_inclination": 8.9417,
        "meta_ra_of_asc_node": 55.9014,
        "meta_arg_of_pericenter": 282.314,
        "meta_mean_anomaly": 99.6592,
        "meta_ephemeris_type": 0,
        "meta_classification_type": "U",
        "meta_norad_cat_id": 28912,
        "meta_element_set_no": 999,
        "meta_rev_at_epoch": 519,
        "meta_bstar": 0,
        "meta_mean_motion_dot": 1.45e-06,
        "meta_mean_motion_ddot": 0,
        "tle_line1": "1 28912U 05049B   25352.84825270  .00000145  00000+0  00000+0 0  9991",
        "tle_line2": "2 28912   8.9417  55.9014 0082047 282.3140  99.6592  1.00264866  5196"
      },
      "geometry": {
        "type": "Point",
        "coordinates": [
          84.71580399855826,
          4.362622148939341
        ]
      }
    },
    {
      "type": "Feature",
      "properties": {
        "norad_id": 29522,
        "name": "DMSP 5D-3 F17 (USA 191)",
        "group": "weather",
        "lat": 36.36793713703834,
        "lon": -173.4159917186645,
        "alt_km": 836.1834805813251,
        "timestamp": "2025-12-20T20:38:44.088133+00:00",
        "meta_object_name": "DMSP 5D-3 F17 (USA 191)",
        "meta_object_id": "2006-050A",
        "meta_epoch": "2025-12-20T13:10:57.032544",
        "meta_mean_motion": 14.14922834,
        "meta_eccentricity": 0.00097276,
        "meta_inclination": 98.739,
        "meta_ra_of_asc_node": 359.7757,
        "meta_arg_of_pericenter": 201.3202,
        "meta_mean_anomaly": 158.7567,
        "meta_ephemeris_type": 0,
        "meta_classification_type": "U",
        "meta_norad_cat_id": 29522,
        "meta_element_set_no": 999,
        "meta_rev_at_epoch": 98715,
        "meta_bstar": 8.4958301e-05,
        "meta_mean_motion_dot": 1.21e-06,
        "meta_mean_motion_ddot": 0,
        "tle_line1": "1 29522U 06050A   25354.54927121  .00000121  00000+0  84958-4 0  9992",
        "tle_line2": "2 29522  98.7390 359.7757 0009727 201.3202 158.7567 14.14922834987153"
      },
      "geometry": {
        "type": "Point",
        "coordinates": [
          -173.4159917186645,
          36.36793713703834
        ]
      }
    },
    {
      "type": "Feature",
      "properties": {
        "norad_id": 32958,
        "name": "FENGYUN 3A",
        "group": "weather",
        "lat": -8.687855773838562,
        "lon": -64.44769526683932,
        "alt_km": 828.7864861966837,
        "timestamp": "2025-12-20T20:38:44.088146+00:00",
        "meta_object_name": "FENGYUN 3A",
        "meta_object_id": "2008-026A",
        "meta_epoch": "2025-12-20T10:32:12.630912",
        "meta_mean_motion": 14.19516831,
        "meta_eccentricity": 0.00076671,
        "meta_inclination": 98.6707,
        "meta_ra_of_asc_node": 293.8039,
        "meta_arg_of_pericenter": 285.6949,
        "meta_mean_anomaly": 74.3382,
        "meta_ephemeris_type": 0,
        "meta_classification_type": "U",
        "meta_norad_cat_id": 32958,
        "meta_element_set_no": 999,
        "meta_rev_at_epoch": 91004,
        "meta_bstar": 5.4616037e-05,
        "meta_mean_motion_dot": 7.2e-07,
        "meta_mean_motion_ddot": 0,
        "tle_line1": "1 32958U 08026A   25354.43903508  .00000072  00000+0  54616-4 0  9998",
        "tle_line2": "2 32958  98.6707 293.8039 0007667 285.6949  74.3382 14.19516831910049"
      },
      "geometry": {
        "type": "Point",
        "coordinates": [
          -64.44769526683932,
          -8.687855773838562
        ]
      }
    },
    {
      "type": "Feature",
      "properties": {
        "norad_id": 35491,
        "name": "GOES 14",
        "group": "weather",
        "lat": -0.4282408261216686,
        "lon": -75.515717161779,
        "alt_km": 35833.132487762065,
        "timestamp": "2025-12-20T20:38:44.088160+00:00",
        "meta_object_name": "GOES 14",
        "meta_object_id": "2009-033A",
        "meta_epoch": "2025-12-20T10:08:52.240704",
        "meta_mean_motion": 1.00096886,
        "meta_eccentricity": 5.174e-05,
        "meta_inclination": 1.2226,
        "meta_ra_of_asc_node": 85.3287,
        "meta_arg_of_pericenter": 181.94,
        "meta_mean_anomaly": 219.6031,
        "meta_ephemeris_type": 0,
        "meta_classification_type": "U",
        "meta_norad_cat_id": 35491,
        "meta_element_set_no": 999,
        "meta_rev_at_epoch": 480,
        "meta_bstar": 0,
        "meta_mean_motion_dot": 2.1e-07,
        "meta_mean_motion_ddot": 0,
        "tle_line1": "1 35491U 09033A   25354.42282686  .00000021  00000+0  00000+0 0  9995",
        "tle_line2": "2 35491   1.2226  85.3287 0000517 181.9400 219.6031  1.00096886  4808"
      },
      "geometry": {
        "type": "Point",
        "coordinates": [
          -75.515717161779,
          -0.4282408261216686
        ]
      }
    },
    {
      "type": "Feature",
      "properties": {
        "norad_id": 35951,
        "name": "DMSP 5D-3 F18 (USA 210)",
        "group": "weather",
        "lat": 6.007277102706348,
        "lon": -29.722450924897327,
        "alt_km": 838.1535666575091,
        "timestamp": "2025-12-20T20:38:44.088173+00:00",
        "meta_object_name": "DMSP 5D-3 F18 (USA 210)",
        "meta_object_id": "2009-057A",
        "meta_epoch": "2025-12-20T13:49:39.567360",
        "meta_mean_motion": 14.14774016,
        "meta_eccentricity": 0.00118664,
        "meta_inclination": 98.8842,
        "meta_ra_of_asc_node": 330.938,
        "meta_arg_of_pericenter": 42.1358,
        "meta_mean_anomaly": 318.0725,
        "meta_ephemeris_type": 0,
        "meta_classification_type": "U",
        "meta_norad_cat_id": 35951,
        "meta_element_set_no": 999,
        "meta_rev_at_epoch": 83433,
        "meta_bstar": 0.00012720723,
        "meta_mean_motion_dot": 2.01e-06,
        "meta_mean_motion_ddot": 0,
        "tle_line1": "1 35951U 09057A   25354.57615240  .00000201  00000+0  12721-3 0  9991",
        "tle_line2": "2 35951  98.8842 330.9380 0011866  42.1358 318.0725 14.14774016834337"
      },
      "geometry": {
        "type": "Point",
        "coordinates": [
          -29.722450924897327,
          6.007277102706348
        ]
      }
    },
    {
      "type": "Feature",
      "properties": {
        "norad_id": 36411,
        "name": "EWS-G2 (GOES 15)",
        "group": "weather",
        "lat": 0.2370859569969742,
        "lon": 100.70799399572512,
        "alt_km": 35808.41776700053,
        "timestamp": "2025-12-20T20:38:44.088186+00:00",
        "meta_object_name": "EWS-G2 (GOES 15)",
        "meta_object_id": "2010-008A",
        "meta_epoch": "2025-12-20T15:10:42.642336",
        "meta_mean_motion": 1.00271052,
        "meta_eccentricity": 0.00054654,
        "meta_inclination": 0.8321,
        "meta_ra_of_asc_node": 86.0835,
        "meta_arg_of_pericenter": 177.7538,
        "meta_mean_anomaly": 114.6687,
        "meta_ephemeris_type": 0,
        "meta_classification_type": "U",
        "meta_norad_cat_id": 36411,
        "meta_element_set_no": 999,
        "meta_rev_at_epoch": 5784,
        "meta_bstar": 0,
        "meta_mean_motion_dot": 6.1e-07,
        "meta_mean_motion_ddot": 0,
        "tle_line1": "1 36411U 10008A   25354.63243799  .00000061  00000+0  00000+0 0  9991",
        "tle_line2": "2 36411   0.8321  86.0835 0005465 177.7538 114.6687  1.00271052 57844"
      },
      "geometry": {
        "type": "Point",
        "coordinates": [
          100.70799399572512,
          0.2370859569969742
        ]
      }
    }
  ]
}